NORAD_CAT_ID,OBJECT_NAME,OBJECT_TYPE,EPOCH,MEAN_MOTION,ECCENTRICITY,INCLINATION,RA_OF_ASC_NODE,ARG_OF_PERICENTER,MEAN_ANOMALY,BSTAR,MEAN_MOTION_DOT,MEAN_MOTION_DDOT,TLE_LINE0,TLE_LINE1,TLE_LINE2,SEMIMAJOR_AXIS,PERIOD,APOGEE,PERIGEE,DECAYED
54161.0,STARLINK-5269,PAYLOAD,2023-02-04 06:45:17,15.08849834,9.1e-05,53.219,44.3289,89.3491,270.7606,-0.0001315,-2.38e-05,0.0,0 STARLINK-5269,1 54161U 22141E   23035.28145661 -.00002380  00000-0 -13150-3 0  9991,2 54161  53.2190  44.3289 0000910  89.3491 270.7606 15.08849834 15210,6917.85,95.437,540.345,539.086,0.0
54161.0,STARLINK-5269,PAYLOAD,2023-02-04 17:52:59,15.08853899,0.0001331,53.2178,42.2453,135.0269,225.0831,-0.00021458,-3.703e-05,0.0,0 STARLINK-5269,1 54161U 22141E   23035.74513047 -.00003703  00000-0 -21458-3 0  9999,2 54161  53.2178  42.2453 0001331 135.0269 225.0831 15.08853899 15282,6917.838,95.437,540.624,538.782,0.0
54161.0,STARLINK-5269,PAYLOAD,2023-02-05 00:14:32,15.08828188,0.0001224,53.2178,41.0559,111.7949,248.3173,0.00014588,2.034e-05,0.0,0 STARLINK-5269,1 54161U 22141E   23036.01010309  .00002034  00000-0  14588-3 0  9993,2 54161  53.2178  41.0559 0001224 111.7949 248.3173 15.08828188 15328,6917.916,95.438,540.628,538.935,0.0
54161.0,STARLINK-5269,PAYLOAD,2023-02-05 09:46:51,15.08834403,0.000134,53.218,39.2705,113.0503,247.0631,0.00016437,2.329e-05,0.0,0 STARLINK-5269,1 54161U 22141E   23036.40754200  .00002329  00000-0  16437-3 0  9993,2 54161  53.2180  39.2705 0001340 113.0503 247.0631 15.08834403 15381,6917.897,95.438,540.689,538.835,0.0
54161.0,STARLINK-5269,PAYLOAD,2023-02-05 17:43:47,15.08834763,0.000129,53.2174,37.7841,110.6214,249.4917,0.00013579,1.874e-05,0.0,0 STARLINK-5269,1 54161U 22141E   23036.73874439  .00001874  00000-0  13579-3 0  9994,2 54161  53.2174  37.7841 0001290 110.6214 249.4917 15.08834763 15432,6917.896,95.438,540.654,538.869,0.0
54161.0,STARLINK-5269,PAYLOAD,2023-02-06 03:16:05,15.08843641,0.0001266,53.2169,36.0001,104.9124,255.2009,0.0001181,1.592e-05,0.0,0 STARLINK-5269,1 54161U 22141E   23037.13618045  .00001592  00000-0  11810-3 0  9991,2 54161  53.2169  36.0001 0001266 104.9124 255.2009 15.08843641 15493,6917.869,95.437,540.61,538.858,0.0
54161.0,STARLINK-5269,PAYLOAD,2023-02-06 09:37:38,15.08849609,0.0001415,53.2163,34.8101,107.5258,252.5889,0.00019097,2.753e-05,0.0,0 STARLINK-5269,1 54161U 22141E   23037.40113947  .00002753  00000-0  19097-3 0  9997,2 54161  53.2163  34.8101 0001415 107.5258 252.5889 15.08849609 15538,6917.851,95.437,540.695,538.737,0.0
54161.0,STARLINK-5269,PAYLOAD,2023-02-07 09:28:24,15.08862627,0.0001358,53.2183,30.3497,99.406,260.7086,0.00041516,6.33e-05,0.0,0 STARLINK-5269,1 54161U 22141E   23038.39473204  .00006330  00000-0  41516-3 0  9997,2 54161  53.2183  30.3497 0001358  99.4060 260.7086 15.08862627 15686,6917.811,95.436,540.616,538.737,0.0
54161.0,STARLINK-5269,PAYLOAD,2023-02-08 09:19:11,15.08854488,0.0001218,53.219,25.8884,85.9495,274.1637,0.00026,3.854e-05,0.0,0 STARLINK-5269,1 54161U 22141E   23039.38833217  .00003854  00000-0  26000-3 0  9990,2 54161  53.2190  25.8884 0001218  85.9495 274.1637 15.08854488 15834,6917.836,95.437,540.544,538.859,0.0
54161.0,STARLINK-5269,PAYLOAD,2023-02-09 02:48:26,15.08832231,0.0001136,53.2189,22.6187,97.3674,262.7447,0.00013128,1.802e-05,0.0,0 STARLINK-5269,1 54161U 22141E   23040.11697908  .00001802  00000-0  13128-3 0  9996,2 54161  53.2189  22.6187 0001136  97.3674 262.7447 15.08832231 15944,6917.904,95.438,540.555,538.983,0.0
54161.0,STARLINK-5269,PAYLOAD,2023-02-09 09:09:59,15.08846817,0.0001066,53.2186,21.4298,81.157,278.9543,0.0013101,0.00020628,0.0,0 STARLINK-5269,1 54161U 22141E   23040.38194068  .00020628  00000-0  13101-2 0  9991,2 54161  53.2186  21.4298 0001066  81.1570 278.9543 15.08846817 15984,6917.86,95.437,540.462,538.987,0.0
54161.0,STARLINK-5269,PAYLOAD,2023-02-09 23:28:28,15.08824982,9.39e-05,53.2182,18.7537,102.6977,257.412,7.0711e-05,8.37e-06,0.0,0 STARLINK-5269,1 54161U 22141E   23040.97810635  .00000837  00000-0  70711-4 0  9993,2 54161  53.2182  18.7537 0000939 102.6977 257.4120 15.08824982 16076,6917.926,95.439,540.441,539.142,0.0
54161.0,STARLINK-5269,PAYLOAD,2023-02-10 05:50:00,15.08845879,9.58e-05,53.2171,17.5646,110.0447,250.0648,0.0008567,0.00013375,0.0,0 STARLINK-5269,1 54161U 22141E   23041.24306454  .00013375  00000-0  85670-3 0  9993,2 54161  53.2171  17.5646 0000958 110.0447 250.0648 15.08845879 16115,6917.862,95.437,540.39,539.065,0.0
54161.0,STARLINK-5269,PAYLOAD,2023-02-11 04:05:24,15.08860744,0.0001045,53.2173,13.4016,114.2427,245.8674,0.0005681,8.77e-05,0.0,0 STARLINK-5269,1 54161U 22141E   23042.17041901  .00008770  00000-0  56810-3 0  9996,2 54161  53.2173  13.4016 0001045 114.2427 245.8674 15.08860744 16259,6917.817,95.436,540.405,538.959,0.0
54161.0,STARLINK-5269,PAYLOAD,2023-02-11 05:40:47,15.08876356,0.0001186,53.2179,13.1043,113.9315,246.1801,0.0011807,0.00018571,0.0,0 STARLINK-5269,1 54161U 22141E   23042.23665767  .00018571  00000-0  11807-2 0  9991,2 54161  53.2179  13.1043 0001186 113.9315 246.1801 15.08876356 16263,6917.769,95.435,540.455,538.814,0.0
54161.0,STARLINK-5269,PAYLOAD,2023-02-12 03:56:11,15.08851037,0.0001451,53.2174,8.9417,93.2977,266.8181,0.00031678,4.759e-05,0.0,0 STARLINK-5269,1 54161U 22141E   23043.16401914  .00004759  00000-0  31678-3 0  9998,2 54161  53.2174   8.9417 0001451  93.2977 266.8181 15.08851037 16409,6917.847,95.437,540.715,538.708,0.0
54161.0,STARLINK-5269,PAYLOAD,2023-02-12 15:03:53,15.08841124,4.64e-05,53.2171,6.8596,47.7609,312.3422,0.00061057,9.443e-05,0.0,0 STARLINK-5269,1 54161U 22141E   23043.62770153  .00009443  00000-0  61057-3 0  9992,2 54161  53.2171   6.8596 0000464  47.7609 312.3422 15.08841124 16478,6917.877,95.437,540.063,539.421,0.0
54161.0,STARLINK-5269,PAYLOAD,2023-02-13 03:46:59,15.08825398,0.0001107,53.2184,4.4815,77.6388,282.4728,0.00034236,5.163e-05,0.0,0 STARLINK-5269,1 54161U 22141E   23044.15762929  .00005163  00000-0  34236-3 0  9997,2 54161  53.2184   4.4815 0001107  77.6388 282.4728 15.08825398 16551,6917.925,95.438,540.556,539.024,0.0
54161.0,STARLINK-5269,PAYLOAD,2023-02-14 06:48:32,15.08851733,0.0001503,53.2189,359.4242,84.855,275.2614,0.00066479,0.00010311,0.0,0 STARLINK-5269,1 54161U 22141E   23045.28371088  .00010311  00000-0  66479-3 0  9999,2 54161  53.2189 359.4242 0001503  84.8550 275.2614 15.08851733 16729,6917.845,95.437,540.749,538.67,0.0
54161.0,STARLINK-5269,PAYLOAD,2023-02-15 03:28:33,15.08842855,0.0001136,53.2171,355.5624,65.1038,295.0072,0.00074937,0.00011659,0.0,0 STARLINK-5269,1 54161U 22141E   23046.14483310  .00011659  00000-0  74937-3 0  9991,2 54161  53.2171 355.5624 0001136  65.1038 295.0072 15.08842855 16853,6917.872,95.437,540.523,538.951,0.0
54161.0,STARLINK-5269,PAYLOAD,2023-02-15 13:00:52,15.08843331,0.0001289,53.2184,353.7767,74.5689,285.5446,0.00054921,8.464e-05,0.0,0 STARLINK-5269,1 54161U 22141E   23046.54227234  .00008464  00000-0  54921-3 0  9997,2 54161  53.2184 353.7767 0001289  74.5689 285.5446 15.08843331 16916,6917.87,95.437,540.627,538.843,0.0
54161.0,STARLINK-5269,PAYLOAD,2023-02-15 20:57:48,15.08850648,0.0001107,53.2161,352.2921,74.5903,285.5211,0.00062518,9.679e-05,0.0,0 STARLINK-5269,1 54161U 22141E   23046.87347223  .00009679  00000-0  62518-3 0  9994,2 54161  53.2161 352.2921 0001107  74.5903 285.5211 15.08850648 16969,6917.848,95.437,540.479,538.947,0.0
54161.0,STARLINK-5269,PAYLOAD,2023-02-16 03:19:19,15.08883517,0.0001067,53.2172,351.1017,86.3633,273.7481,0.0015455,0.00024424,0.0,0 STARLINK-5269,1 54161U 22141E   23047.13842259  .00024424  00000-0  15455-2 0  9995,2 54161  53.2172 351.1017 0001067  86.3633 273.7481 15.08883517 17006,6917.747,95.435,540.351,538.874,0.0
54161.0,STARLINK-5269,PAYLOAD,2023-02-16 12:51:38,15.08863718,0.000118,53.217,349.3172,89.9912,270.1215,0.00066647,0.00010342,0.0,0 STARLINK-5269,1 54161U 22141E   23047.53586295  .00010342  00000-0  66647-3 0  9998,2 54161  53.2170 349.3172 0001180  89.9912 270.1215 15.08863718 17063,6917.808,95.436,540.489,538.857,0.0
54161.0,STARLINK-5269,PAYLOAD,2023-02-17 01:34:44,15.0882517,0.0001895,53.2172,346.9373,89.2185,270.9025,0.0012951,0.00020375,0.0,0 STARLINK-5269,1 54161U 22141E   23048.06579489  .00020375  00000-0  12951-2 0  9999,2 54161  53.2172 346.9373 0001895  89.2185 270.9025 15.08825170 17145,6917.926,95.438,541.102,538.48,0.0
54161.0,STARLINK-5269,PAYLOAD,2023-02-17 12:42:27,15.08828045,0.0001665,53.2172,344.8556,102.035,258.0829,0.00088278,0.00013785,0.0,0 STARLINK-5269,1 54161U 22141E   23048.52948046  .00013785  00000-0  88278-3 0  9992,2 54161  53.2172 344.8556 0001665 102.0350 258.0829 15.08828045 17219,6917.917,95.438,540.934,538.63,0.0
54161.0,STARLINK-5269,PAYLOAD,2023-02-17 23:50:10,15.08813954,0.0001998,53.2173,342.7755,111.6971,248.4234,0.0012321,0.00019361,0.0,0 STARLINK-5269,1 54161U 22141E   23048.99317259  .00019361  00000-0  12321-2 0  9990,2 54161  53.2173 342.7755 0001998 111.6971 248.4234 15.08813954 17285,6917.96,95.439,541.207,538.443,0.0
54161.0,STARLINK-5269,PAYLOAD,2023-02-18 12:33:15,15.08845243,0.0001728,53.217,340.3951,111.2577,248.86,0.0020122,0.00031886,0.0,0 STARLINK-5269,1 54161U 22141E   23049.52309628  .00031886  00000-0  20122-2 0  9995,2 54161  53.2170 340.3951 0001728 111.2577 248.8600 15.08845243 17369,6917.864,95.437,540.925,538.534,0.0
54161.0,STARLINK-5269,PAYLOAD,2023-02-19 12:24:01,15.08882944,5.85e-05,53.2178,335.9355,106.5899,253.5158,0.0017535,0.00027762,0.0,0 STARLINK-5269,1 54161U 22141E   23050.51667844  .00027762  00000-0  17535-2 0  9995,2 54161  53.2178 335.9355 0000585 106.5899 253.5158 15.08882944 17516,6917.749,95.435,540.019,539.209,0.0
54161.0,STARLINK-5269,PAYLOAD,2023-02-20 01:07:05,15.08867009,0.0001502,53.2174,333.556,105.7818,254.334,0.0017414,0.00027556,0.0,0 STARLINK-5269,1 54161U 22141E   23051.04659667  .00027556  00000-0  17414-2 0  9995,2 54161  53.2174 333.5560 0001502 105.7818 254.3340 15.08867009 17591,6917.798,95.436,540.702,538.624,0.0
